{"type": "FeatureCollection", "features": [ {"type": "Feature", "properties": {"norad_id": 66570, "name": "STARLINK-35834", "group": "last-30-days", "lat": -14.43094332331026, "lon": -75.31412129612526, "alt_km": 413.7267857160823, "timestamp": "2025-12-18T07:01:53.340011+00:00", "meta": {"OBJECT_NAME": "STARLINK-35834", "OBJECT_ID": "2025-268P", "EPOCH": "2025-12-17T14:42:59.675616", "MEAN_MOTION": 15.51284924, "ECCENTRICITY": 0.00017815, "INCLINATION": 43.0005, "RA_OF_ASC_NODE": 92.6378, "ARG_OF_PERICENTER": 300.8834, "MEAN_ANOMALY": 59.1851, "EPHEMERIS_TYPE": 0, "CLASSIFICATION_TYPE": "U", "NORAD_CAT_ID": 66570, "ELEMENT_SET_NO": 999, "REV_AT_EPOCH": 538, "BSTAR": 0.0039465176, "MEAN_MOTION_DOT": 0.00244647, "MEAN_MOTION_DDOT": 0}, "tle": {"line1": "1 66570U 25268P   25351.61319069  .00244647  00000+0  39465-2 0  9993", "line2": "2 66570  43.0005  92.6378 0001781 300.8834  59.1851 15.51284924  5382"}}, "geometry": {"type": "Point", "coordinates": [-75.31412129612526, -14.43094332331026]}}, {"type": "Feature", "properties": {"norad_id": 66571, "name": "STARLINK-35836", "group": "last-30-days", "lat": -14.419864376415443, "lon": -75.32930574474378, "alt_km": 415.2129897798468, "timestamp": "2025-12-18T07:01:53.340022+00:00", "meta": {"OBJECT_NAME": "STARLINK-35836", "OBJECT_ID": "2025-268Q", "EPOCH": "2025-12-17T17:48:00.326880", "MEAN_MOTION": 15.50627422, "ECCENTRICITY": 0.0001518, "INCLINATION": 43.0008, "RA_OF_ASC_NODE": 91.8794, "ARG_OF_PERICENTER": 198.3419, "MEAN_ANOMALY": 161.7387, "EPHEMERIS_TYPE": 0, "CLASSIFICATION_TYPE": "U", "NORAD_CAT_ID": 66571, "ELEMENT_SET_NO": 999, "REV_AT_EPOCH": 540, "BSTAR": 0.00045693248, "MEAN_MOTION_DOT": 0.00026602, "MEAN_MOTION_DDOT": 0}, "tle": {"line1": "1 66571U 25268Q   25351.74167045  .00026602  00000+0  45693-3 0  9993", "line2": "2 66571  43.0008  91.8794 0001518 198.3419 161.7387 15.50627422  5406"}}, "geometry": {"type": "Point", "coordinates": [-75.32930574474378, -14.419864376415443]}}, {"type": "Feature", "properties": {"norad_id": 66572, "name": "STARLINK-35870", "group": "last-30-days", "lat": -15.570109344552694, "lon": -73.95054236631022, "alt_km": 416.3528996815012, "timestamp": "2025-12-18T07:01:53.340033+00:00", "meta": {"OBJECT_NAME": "STARLINK-35870", "OBJECT_ID": "2025-268R", "EPOCH": "2025-12-17T22:00:01.999584", "MEAN_MOTION": 15.50553956, "ECCENTRICITY": 0.0001554, "INCLINATION": 43.0009, "RA_OF_ASC_NODE": 90.8526, "ARG_OF_PERICENTER": 275.9245, "MEAN_ANOMALY": 344.2311, "EPHEMERIS_TYPE": 0, "CLASSIFICATION_TYPE": "U", "NORAD_CAT_ID": 66572, "ELEMENT_SET_NO": 999, "REV_AT_EPOCH": 550, "BSTAR": 0.00026436509, "MEAN_MOTION_DOT": 0.00015184, "MEAN_MOTION_DDOT": 0}, "tle": {"line1": "1 66572U 25268R   25351.91668981  .00015184  00000+0  26437-3 0  9996", "line2": "2 66572  43.0009  90.8526 0001554 275.9245 344.2311 15.50553956  5505"}}, "geometry": {"type": "Point", "coordinates": [-73.95054236631022, -15.570109344552694]}}, {"type": "Feature", "properties": {"norad_id": 66573, "name": "STARLINK-35650", "group": "last-30-days", "lat": -21.405613196057615, "lon": -66.4958227313064, "alt_km": 414.3480587290014, "timestamp": "2025-12-18T07:01:53.340043+00:00", "meta": {"OBJECT_NAME": "STARLINK-35650", "OBJECT_ID": "2025-268S", "EPOCH": "2025-12-16T15:29:39.161760", "MEAN_MOTION": 15.51253867, "ECCENTRICITY": 0.00025406, "INCLINATION": 42.9964, "RA_OF_ASC_NODE": 98.2753, "ARG_OF_PERICENTER": 312.0819, "MEAN_ANOMALY": 47.9825, "EPHEMERIS_TYPE": 0, "CLASSIFICATION_TYPE": "U", "NORAD_CAT_ID": 66573, "ELEMENT_SET_NO": 999, "REV_AT_EPOCH": 523, "BSTAR": 0.002315295, "MEAN_MOTION_DOT": 0.00141337, "MEAN_MOTION_DDOT": 0}, "tle": {"line1": "1 66573U 25268S   25350.64559215  .00141337  00000+0  23153-2 0  9996", "line2": "2 66573  42.9964  98.2753 0002540 312.0819  47.9825 15.51253867  5230"}}, "geometry": {"type": "Point", "coordinates": [-66.4958227313064, -21.405613196057615]}}, {"type": "Feature", "properties": {"norad_id": 66574, "name": "STARLINK-35812", "group": "last-30-days", "lat": -18.124443724521704, "lon": -70.79382365754856, "alt_km": 416.11888664771413, "timestamp": "2025-12-18T07:01:53.340053+00:00", "meta": {"OBJECT_NAME": "STARLINK-35812", "OBJECT_ID": "2025-268T", "EPOCH": "2025-12-17T16:13:45.728544", "MEAN_MOTION": 15.50589405, "ECCENTRICITY": 0.00013555, "INCLINATION": 42.9988, "RA_OF_ASC_NODE": 92.2495, "ARG_OF_PERICENTER": 263.985, "MEAN_ANOMALY": 96.0855, "EPHEMERIS_TYPE": 0, "CLASSIFICATION_TYPE": "U", "NORAD_CAT_ID": 66574, "ELEMENT_SET_NO": 999, "REV_AT_EPOCH": 539, "BSTAR": 0.0010775631, "MEAN_MOTION_DOT": 0.00063411, "MEAN_MOTION_DDOT": 0}, "tle": {"line1": "1 66574U 25268T   25351.67622371  .00063411  00000+0  10776-2 0  9998", "line2": "2 66574  42.9988  92.2495 0001355 263.9850  96.0855 15.50589405  5390"}}, "geometry": {"type": "Point", "coordinates": [-70.79382365754856, -18.124443724521704]}}, {"type": "Feature", "properties": {"norad_id": 66575, "name": "STARLINK-35810", "group": "last-30-days", "lat": -19.381751352438997, "lon": -69.18020091525216, "alt_km": 415.08603803430196, "timestamp": "2025-12-18T07:01:53.340063+00:00", "meta": {"OBJECT_NAME": "STARLINK-35810", "OBJECT_ID": "2025-268U", "EPOCH": "2025-12-17T16:13:15.621600", "MEAN_MOTION": 15.50617096, "ECCENTRICITY": 0.00029788, "INCLINATION": 42.9962, "RA_OF_ASC_NODE": 92.2472, "ARG_OF_PERICENTER": 246.3042, "MEAN_ANOMALY": 113.7505, "EPHEMERIS_TYPE": 0, "CLASSIFICATION_TYPE": "U", "NORAD_CAT_ID": 66575, "ELEMENT_SET_NO": 999, "REV_AT_EPOCH": 539, "BSTAR": 0.001056294, "MEAN_MOTION_DOT": 0.00062211, "MEAN_MOTION_DDOT": 0}, "tle": {"line1": "1 66575U 25268U   25351.67587525  .00062211  00000+0  10563-2 0  9991", "line2": "2 66575  42.9962  92.2472 0002978 246.3042 113.7505 15.50617096  5395"}}, "geometry": {"type": "Point", "coordinates": [-69.18020091525216, -19.381751352438997]}}, {"type": "Feature", "properties": {"norad_id": 66576, "name": "STARLINK-35814", "group": "last-30-days", "lat": -20.603728900265754, "lon": -67.57782509537728, "alt_km": 416.05957019499874, "timestamp": "2025-12-18T07:01:53.340072+00:00", "meta": {"OBJECT_NAME": "STARLINK-35814", "OBJECT_ID": "2025-268V", "EPOCH": "2025-12-17T14:40:01.435872", "MEAN_MOTION": 15.50624036, "ECCENTRICITY": 0.0001362, "INCLINATION": 43.0009, "RA_OF_ASC_NODE": 92.619, "ARG_OF_PERICENTER": 258.6743, "MEAN_ANOMALY": 101.3965, "EPHEMERIS_TYPE": 0, "CLASSIFICATION_TYPE": "U", "NORAD_CAT_ID": 66576, "ELEMENT_SET_NO": 999, "REV_AT_EPOCH": 538, "BSTAR": 0.0012193744, "MEAN_MOTION_DOT": 0.00071969, "MEAN_MOTION_DDOT": 0}, "tle": {"line1": "1 66576U 25268V   25351.61112773  .00071969  00000+0  12194-2 0  9997", "line2": "2 66576  43.0009  92.6190 0001362 258.6743 101.3965 15.50624036  5385"}}, "geometry": {"type": "Point", "coordinates": [-67.57782509537728, -20.603728900265754]}}, {"type": "Feature", "properties": {"norad_id": 66577, "name": "STARLINK-35815", "group": "last-30-days", "lat": -21.87659463270375, "lon": -65.85178372001035, "alt_km": 416.0968420774261, "timestamp": "2025-12-18T07:01:53.340082+00:00", "meta": {"OBJECT_NAME": "STARLINK-35815", "OBJECT_ID": "2025-268W", "EPOCH": "2025-12-17T16:12:16.385760", "MEAN_MOTION": 15.50672018, "ECCENTRICITY": 0.00015138, "INCLINATION": 43.0006, "RA_OF_ASC_NODE": 92.24, "ARG_OF_PERICENTER": 270.8757, "MEAN_ANOMALY": 89.193, "EPHEMERIS_TYPE": 0, "CLASSIFICATION_TYPE": "U", "NORAD_CAT_ID": 66577, "ELEMENT_SET_NO": 999, "REV_AT_EPOCH": 539, "BSTAR": 0.0013863265, "MEAN_MOTION_DOT": 0.00082117, "MEAN_MOTION_DDOT": 0}, "tle": {"line1": "1 66577U 25268W   25351.67518965  .00082117  00000+0  13863-2 0  9998", "line2": "2 66577  43.0006  92.2400 0001513 270.8757  89.1930 15.50672018  5391"}}, "geometry": {"type": "Point", "coordinates": [-65.85178372001035, -21.87659463270375]}}, {"type": "Feature", "properties": {"norad_id": 66578, "name": "STARLINK-35743", "group": "last-30-days", "lat": -22.893611378770654, "lon": -64.43119615259629, "alt_km": 416.9609127272206, "timestamp": "2025-12-18T07:01:53.340092+00:00", "meta": {"OBJECT_NAME": "STARLINK-35743", "OBJECT_ID": "2025-268X", "EPOCH": "2025-12-17T16:11:47.575680", "MEAN_MOTION": 15.50579337, "ECCENTRICITY": 5.39e-05, "INCLINATION": 42.9983, "RA_OF_ASC_NODE": 92.2366, "ARG_OF_PERICENTER": 300.3455, "MEAN_ANOMALY": 59.7352, "EPHEMERIS_TYPE": 0, "CLASSIFICATION_TYPE": "U", "NORAD_CAT_ID": 66578, "ELEMENT_SET_NO": 999, "REV_AT_EPOCH": 539, "BSTAR": 0.0012374318, "MEAN_MOTION_DOT": 0.00072932, "MEAN_MOTION_DDOT": 0}, "tle": {"line1": "1 66578U 25268X   25351.67485620  .00072932  00000+0  12374-2 0  9990", "line2": "2 66578  42.9983  92.2366 0000539 300.3455  59.7352 15.50579337  5397"}}, "geometry": {"type": "Point", "coordinates": [-64.43119615259629, -22.893611378770654]}}, {"type": "Feature", "properties": {"norad_id": 66579, "name": "STARLINK-35868", "group": "last-30-days", "lat": -24.15244060108278, "lon": -62.620391177402745, "alt_km": 417.5995741771012, "timestamp": "2025-12-18T07:01:53.340104+00:00", "meta": {"OBJECT_NAME": "STARLINK-35868", "OBJECT_ID": "2025-268Y", "EPOCH": "2025-12-17T14:38:32.536320", "MEAN_MOTION": 15.50644886, "ECCENTRICITY": 0.00021563, "INCLINATION": 43.002, "RA_OF_ASC_NODE": 92.6128, "ARG_OF_PERICENTER": 335.1769, "MEAN_ANOMALY": 24.8987, "EPHEMERIS_TYPE": 0, "CLASSIFICATION_TYPE": "U", "NORAD_CAT_ID": 66579, "ELEMENT_SET_NO": 999, "REV_AT_EPOCH": 538, "BSTAR": 0.0013318962, "MEAN_MOTION_DOT": 0.00078772, "MEAN_MOTION_DDOT": 0}, "tle": {"line1": "1 66579U 25268Y   25351.61009880  .00078772  00000+0  13319-2 0  9993", "line2": "2 66579  43.0020  92.6128 0002156 335.1769  24.8987 15.50644886  5381"}}, "geometry": {"type": "Point", "coordinates": [-62.620391177402745, -24.15244060108278]}}]}